DO-64
1 32789U 08021G   12257.69528608  .00002735  00000-0  31555-3 0  4164
2 32789 097.8054 319.8540 0015332 124.6480 235.6114 14.86383949237024
CO-66
1 32791U 08021J   12257.81930252  .00001365  00000-0  17118-3 0  3978
2 32791 097.7894 316.8353 0016857 128.6979 231.5673 14.83681916236887
RS-30
1 32953U 08025A   12257.66581326  .00000010  00000-0  00000 0 0  1375
2 32953 082.4985 240.1107 0020063 112.2549 248.0659 12.43027491195552
PHARMSAT
1 35002U 09028B   12226.86484473  .07728342  73476-5  57159-3 0   789
2 35002 040.4341 050.6671 0012079 300.9773 059.0492 16.39309245183554
METEOR-M
1 35865U 09049A   12257.74489430 -.00000003  00000-0  18120-4 0  7746
2 35865 098.6451 310.3679 0002616 137.2531 222.8849 14.21869055155184
RS-38
1 35869U 09049E   12257.75274802  .00000033  00000-0  34407-4 0  7654
2 35869 098.6405 310.3561 0004709 145.5782 214.5700 14.22086478155200
JUGNU
1 37839U 11058B   12256.93686288  .00000620  00000-0  19019-3 0 02276
2 37839 019.9597 186.6331 0019577 109.8182 250.4331 14.12080607047668
SRMSAT
1 37841U 11058D   12256.19097637  .00000264  00000-0  00000-0 0 02283
2 37841 019.9698 197.7329 0011639 066.8198 293.3459 14.10160012047498
RAX-2
1 37853U 11061D   12256.91860898  .00005771  00000-0  45634-3 0 02932
2 37853 101.7074 337.0625 0244558 100.7766 262.0992 14.80737686047381
AUBIESAT
1 37854U 11061E   12256.91663524  .00005775  00000-0  44785-3 0 02918
2 37854 101.7128 337.4275 0246036 100.0961 262.7948 14.81189685047378
HRBE
1 37855U 11061F   12256.93977703  .00006009  00000-0  46815-3 0 02870
2 37855 101.7102 337.3866 0245978 100.1602 262.7397 14.81006242047378
RS-39
1 38051U 11062C   12257.79386194  .00008236  00000-0  33111-3 0  6988
2 38051 051.6340 097.1826 0012259 358.0732 111.7738 15.25703019 35490
E-STAR
1 38079U 12006C   12257.72810913  .00036752  00000-0  89938-3 0  5016
2 38079 069.4793 112.5268 0717640 135.8730 230.1988 14.20490874 30131
GOLIAT
1 38085U 12006J   12257.71346421  .00036476  00000-0  88659-3 0  4718
2 38085 069.4846 113.1469 0723537 136.2709 229.8075 14.19377063 30112
HORYU-2
1 38340U 12025D   12256.83470936  .00001221  00000-0  21104-3 0  1432
2 38340 098.1799 196.7879 0013976 054.4372 305.8148 14.70163300 17351
RS-40
1 38736U 12041D   12256.66313645  .00000010  00000-0  00000-0 0 00526
2 38736 082.4823 328.1654 0018150 210.0773 149.9268 12.42646472005776
