Satellite: DO-64
Catalog number: 32789
Epoch time:      12257.69528608
Element set:     416
Inclination:      097.8054 deg
RA of node:       319.8540 deg
Eccentricity:    0.0015332
Arg of perigee:   124.6480 deg
Mean anomaly:     235.6114 deg
Mean motion:   14.86383949 rev/day
Decay rate:      2.735e-05 rev/day^2
Epoch rev:           23702
Checksum:              330

Satellite: CO-66
Catalog number: 32791
Epoch time:      12257.81930252
Element set:     397
Inclination:      097.7894 deg
RA of node:       316.8353 deg
Eccentricity:    0.0016857
Arg of perigee:   128.6979 deg
Mean anomaly:     231.5673 deg
Mean motion:   14.83681916 rev/day
Decay rate:      1.365e-05 rev/day^2
Epoch rev:           23688
Checksum:              367

Satellite: RS-30
Catalog number: 32953
Epoch time:      12257.66581326
Element set:     137
Inclination:      082.4985 deg
RA of node:       240.1107 deg
Eccentricity:    0.0020063
Arg of perigee:   112.2549 deg
Mean anomaly:     248.0659 deg
Mean motion:   12.43027491 rev/day
Decay rate:        1.0e-07 rev/day^2
Epoch rev:           19555
Checksum:              280

Satellite: PHARMSAT
Catalog number: 35002
Epoch time:      12226.86484473
Element set:      78
Inclination:      040.4341 deg
RA of node:       050.6671 deg
Eccentricity:    0.0012079
Arg of perigee:   300.9773 deg
Mean anomaly:     059.0492 deg
Mean motion:   16.39309245 rev/day
Decay rate:   7.728342e-02 rev/day^2
Epoch rev:           18355
Checksum:              302

Satellite: METEOR-M
Catalog number: 35865
Epoch time:      12257.74489430
Element set:     774
Inclination:      098.6451 deg
RA of node:       310.3679 deg
Eccentricity:    0.0002616
Arg of perigee:   137.2531 deg
Mean anomaly:     222.8849 deg
Mean motion:   14.21869055 rev/day
Decay rate:       -3.0e-08 rev/day^2
Epoch rev:           15518
Checksum:              312

Satellite: RS-38
Catalog number: 35869
Epoch time:      12257.75274802
Element set:     765
Inclination:      098.6405 deg
RA of node:       310.3561 deg
Eccentricity:    0.0004709
Arg of perigee:   145.5782 deg
Mean anomaly:     214.5700 deg
Mean motion:   14.22086478 rev/day
Decay rate:        3.3e-07 rev/day^2
Epoch rev:           15520
Checksum:              306

Satellite: JUGNU
Catalog number: 37839
Epoch time:      12256.93686288
Element set:    0227
Inclination:      019.9597 deg
RA of node:       186.6331 deg
Eccentricity:    0.0019577
Arg of perigee:   109.8182 deg
Mean anomaly:     250.4331 deg
Mean motion:   14.12080607 rev/day
Decay rate:       6.20e-06 rev/day^2
Epoch rev:           04766
Checksum:              320

Satellite: SRMSAT
Catalog number: 37841
Epoch time:      12256.19097637
Element set:    0228
Inclination:      019.9698 deg
RA of node:       197.7329 deg
Eccentricity:    0.0011639
Arg of perigee:   066.8198 deg
Mean anomaly:     293.3459 deg
Mean motion:   14.10160012 rev/day
Decay rate:       2.64e-06 rev/day^2
Epoch rev:           04749
Checksum:              327

Satellite: RAX-2
Catalog number: 37853
Epoch time:      12256.91860898
Element set:    0293
Inclination:      101.7074 deg
RA of node:       337.0625 deg
Eccentricity:    0.0244558
Arg of perigee:   100.7766 deg
Mean anomaly:     262.0992 deg
Mean motion:   14.80737686 rev/day
Decay rate:      5.771e-05 rev/day^2
Epoch rev:           04738
Checksum:              339

Satellite: AUBIESAT
Catalog number: 37854
Epoch time:      12256.91663524
Element set:    0291
Inclination:      101.7128 deg
RA of node:       337.4275 deg
Eccentricity:    0.0246036
Arg of perigee:   100.0961 deg
Mean anomaly:     262.7948 deg
Mean motion:   14.81189685 rev/day
Decay rate:      5.775e-05 rev/day^2
Epoch rev:           04737
Checksum:              322

Satellite: HRBE
Catalog number: 37855
Epoch time:      12256.93977703
Element set:    0287
Inclination:      101.7102 deg
RA of node:       337.3866 deg
Eccentricity:    0.0245978
Arg of perigee:   100.1602 deg
Mean anomaly:     262.7397 deg
Mean motion:   14.81006242 rev/day
Decay rate:      6.009e-05 rev/day^2
Epoch rev:           04737
Checksum:              307

Satellite: RS-39
Catalog number: 38051
Epoch time:      12257.79386194
Element set:     698
Inclination:      051.6340 deg
RA of node:       097.1826 deg
Eccentricity:    0.0012259
Arg of perigee:   358.0732 deg
Mean anomaly:     111.7738 deg
Mean motion:   15.25703019 rev/day
Decay rate:      8.236e-05 rev/day^2
Epoch rev:            3549
Checksum:              325

Satellite: E-STAR
Catalog number: 38079
Epoch time:      12257.72810913
Element set:     501
Inclination:      069.4793 deg
RA of node:       112.5268 deg
Eccentricity:    0.0717640
Arg of perigee:   135.8730 deg
Mean anomaly:     230.1988 deg
Mean motion:   14.20490874 rev/day
Decay rate:     3.6752e-04 rev/day^2
Epoch rev:            3013
Checksum:              304

Satellite: GOLIAT
Catalog number: 38085
Epoch time:      12257.71346421
Element set:     471
Inclination:      069.4846 deg
RA of node:       113.1469 deg
Eccentricity:    0.0723537
Arg of perigee:   136.2709 deg
Mean anomaly:     229.8075 deg
Mean motion:   14.19377063 rev/day
Decay rate:     3.6476e-04 rev/day^2
Epoch rev:            3011
Checksum:              310

Satellite: HORYU-2
Catalog number: 38340
Epoch time:      12256.83470936
Element set:     143
Inclination:      098.1799 deg
RA of node:       196.7879 deg
Eccentricity:    0.0013976
Arg of perigee:   054.4372 deg
Mean anomaly:     305.8148 deg
Mean motion:   14.70163300 rev/day
Decay rate:      1.221e-05 rev/day^2
Epoch rev:            1735
Checksum:              310

Satellite: RS-40
Catalog number: 38736
Epoch time:      12256.66313645
Element set:    0052
Inclination:      082.4823 deg
RA of node:       328.1654 deg
Eccentricity:    0.0018150
Arg of perigee:   210.0773 deg
Mean anomaly:     149.9268 deg
Mean motion:   12.42646472 rev/day
Decay rate:        1.0e-07 rev/day^2
Epoch rev:           00577
Checksum:              287

